start=new Date('2021-10-02T00:00:00.000Z').valueOf();
sats=[{"EPOCH":"2021-10-01T16:02:17.363328","ELEMENT_SET_NO":"999","OBJECT_NAME":"STARLINK-1948","APOAPSIS":"548.255","TLE_LINE1":"1 46798U 20074BM  21274.66825652  .00000359  00000-0  43025-4 0  9998","INCLINATION":"53.0554","EPHEMERIS_TYPE":"0","TIME_SYSTEM":"UTC","DECAY_DATE":null,"BSTAR":"0.00004302500000","GP_ID":"185962192","NORAD_CAT_ID":"46798","CLASSIFICATION_TYPE":"U","RCS_SIZE":"LARGE","MEAN_MOTION":"15.06397013","REF_FRAME":"TEME","ECCENTRICITY":"0.00014900","TLE_LINE2":"2 46798  53.0554  49.1845 0001490 108.5675 251.5475 15.06397013 52297","MEAN_MOTION_DOT":"0.00000359","CENTER_NAME":"EARTH","LAUNCH_DATE":"2020-10-24","SITE":"AFETR","MEAN_ELEMENT_THEORY":"SGP4","FILE":"3139397","MEAN_ANOMALY":"251.5475","OBJECT_TYPE":"PAYLOAD","PERIOD":"95.592","MEAN_MOTION_DDOT":"0.0000000000000","COUNTRY_CODE":"US","ARG_OF_PERICENTER":"108.5675","OBJECT_ID":"2020-074BM","SEMIMAJOR_AXIS":"6925.358","REV_AT_EPOCH":"5229","RA_OF_ASC_NODE":"49.1845","PERIAPSIS":"546.191"},{"BSTAR":"0.00006367200000","TIME_SYSTEM":"UTC","DECAY_DATE":null,"EPHEMERIS_TYPE":"0","INCLINATION":"53.0556","TLE_LINE1":"1 47122U 20088A   21274.68901587  .00000667  00000-0  63672-4 0  9991","APOAPSIS":"548.142","OBJECT_NAME":"STARLINK-1777","EPOCH":"2021-10-01T16:32:10.971168","ELEMENT_SET_NO":"999","SITE":"AFETR","CENTER_NAME":"EARTH","MEAN_MOTION_DOT":"0.00000667","LAUNCH_DATE":"2020-11-25","ECCENTRICITY":"0.00013570","TLE_LINE2":"2 47122  53.0556  14.0868 0001357  94.5397 265.5747 15.06403809 47667","REF_FRAME":"TEME","MEAN_MOTION":"15.06403809","RCS_SIZE":"LARGE","GP_ID":"185962230","NORAD_CAT_ID":"47122","CLASSIFICATION_TYPE":"U","OBJECT_TYPE":"PAYLOAD","MEAN_ANOMALY":"265.5747","FILE":"3139397","MEAN_ELEMENT_THEORY":"SGP4","PERIAPSIS":"546.262","RA_OF_ASC_NODE":"14.0868","REV_AT_EPOCH":"4766","ARG_OF_PERICENTER":"94.5397","OBJECT_ID":"2020-088A","SEMIMAJOR_AXIS":"6925.337","PERIOD":"95.592","MEAN_MOTION_DDOT":"0.0000000000000","COUNTRY_CODE":"US"},{"REV_AT_EPOCH":"4759","ARG_OF_PERICENTER":"95.3416","SEMIMAJOR_AXIS":"6925.339","OBJECT_ID":"2020-088C","PERIOD":"95.592","COUNTRY_CODE":"US","MEAN_MOTION_DDOT":"0.0000000000000","PERIAPSIS":"546.279","RA_OF_ASC_NODE":"19.1620","MEAN_ANOMALY":"264.7725","OBJECT_TYPE":"PAYLOAD","FILE":"3139397","MEAN_ELEMENT_THEORY":"SGP4","MEAN_MOTION":"15.06403155","REF_FRAME":"TEME","RCS_SIZE":"LARGE","GP_ID":"185961983","NORAD_CAT_ID":"47124","CLASSIFICATION_TYPE":"U","SITE":"AFETR","CENTER_NAME":"EARTH","MEAN_MOTION_DOT":"0.00001457","LAUNCH_DATE":"2020-11-25","ECCENTRICITY":"0.00013360","TLE_LINE2":"2 47124  53.0556  19.1620 0001336  95.3416 264.7725 15.06403155 47592","APOAPSIS":"548.129","OBJECT_NAME":"STARLINK-1785","ELEMENT_SET_NO":"999","EPOCH":"2021-10-01T16:11:33.917568","BSTAR":"0.00011666000000","TIME_SYSTEM":"UTC","DECAY_DATE":null,"EPHEMERIS_TYPE":"0","TLE_LINE1":"1 47124U 20088C   21274.67469812  .00001457  00000-0  11666-3 0  9995","INCLINATION":"53.0556"},{"OBJECT_TYPE":"PAYLOAD","MEAN_ANOMALY":"266.0764","MEAN_ELEMENT_THEORY":"SGP4","FILE":"3139397","PERIAPSIS":"546.504","RA_OF_ASC_NODE":"14.2741","ARG_OF_PERICENTER":"94.0342","SEMIMAJOR_AXIS":"6925.344","OBJECT_ID":"2020-088E","REV_AT_EPOCH":"4766","PERIOD":"95.592","COUNTRY_CODE":"US","MEAN_MOTION_DDOT":"0.0000000000000","TIME_SYSTEM":"UTC","DECAY_DATE":null,"BSTAR":"0.00011280000000","TLE_LINE1":"1 47126U 20088E   21274.64846014  .00001399  00000-0  11280-3 0  9994","INCLINATION":"53.0573","EPHEMERIS_TYPE":"0","APOAPSIS":"547.914","ELEMENT_SET_NO":"999","EPOCH":"2021-10-01T15:33:46.956096","OBJECT_NAME":"STARLINK-1812","MEAN_MOTION_DOT":"0.00001399","CENTER_NAME":"EARTH","LAUNCH_DATE":"2020-11-25","SITE":"AFETR","ECCENTRICITY":"0.00010180","TLE_LINE2":"2 47126  53.0573  14.2741 0001018  94.0342 266.0764 15.06401614 47668","MEAN_MOTION":"15.06401614","REF_FRAME":"TEME","GP_ID":"185961236","NORAD_CAT_ID":"47126","CLASSIFICATION_TYPE":"U","RCS_SIZE":"LARGE"},{"FILE":"3139395","MEAN_ELEMENT_THEORY":"SGP4","OBJECT_TYPE":"PAYLOAD","MEAN_ANOMALY":"63.0470","RA_OF_ASC_NODE":"295.9485","PERIAPSIS":"235.906","PERIOD":"89.246","COUNTRY_CODE":"US","MEAN_MOTION_DDOT":"0.0279320000000","REV_AT_EPOCH":"4911","ARG_OF_PERICENTER":"297.4236","SEMIMAJOR_AXIS":"6615.340","OBJECT_ID":"2020-088F","EPHEMERIS_TYPE":"0","TLE_LINE1":"1 47127U 20088F   21275.09040890  .03241972  27932-1  37146-2 0  9991","INCLINATION":"53.0470","BSTAR":"0.00371460000000","TIME_SYSTEM":"UTC","DECAY_DATE":null,"OBJECT_NAME":"STARLINK-1836","EPOCH":"2021-10-02T02:10:11.328960","ELEMENT_SET_NO":"999","APOAPSIS":"238.504","ECCENTRICITY":"0.00019640","TLE_LINE2":"2 47127  53.0470 295.9485 0001964 297.4236  63.0470 16.13520488 49110","SITE":"AFETR","MEAN_MOTION_DOT":"0.03241972","CENTER_NAME":"EARTH","LAUNCH_DATE":"2020-11-25","RCS_SIZE":"LARGE","NORAD_CAT_ID":"47127","GP_ID":"185940114","CLASSIFICATION_TYPE":"U","MEAN_MOTION":"16.13520488","REF_FRAME":"TEME"},{"PERIOD":"95.592","COUNTRY_CODE":"US","MEAN_MOTION_DDOT":"0.0000000000000","ARG_OF_PERICENTER":"69.7926","SEMIMAJOR_AXIS":"6925.319","OBJECT_ID":"2020-088G","REV_AT_EPOCH":"4793","RA_OF_ASC_NODE":"354.4500","PERIAPSIS":"542.634","MEAN_ELEMENT_THEORY":"SGP4","FILE":"3139397","MEAN_ANOMALY":"290.3769","OBJECT_TYPE":"PAYLOAD","NORAD_CAT_ID":"47128","GP_ID":"185961730","CLASSIFICATION_TYPE":"U","RCS_SIZE":"LARGE","REF_FRAME":"TEME","MEAN_MOTION":"15.06409769","ECCENTRICITY":"0.00065690","TLE_LINE2":"2 47128  53.0552 354.4500 0006569  69.7926 290.3769 15.06409769 47936","MEAN_MOTION_DOT":"0.00000860","CENTER_NAME":"EARTH","LAUNCH_DATE":"2020-11-25","SITE":"AFETR","EPOCH":"2021-10-01T14:32:45.236832","ELEMENT_SET_NO":"999","OBJECT_NAME":"STARLINK-1837","APOAPSIS":"551.733","TLE_LINE1":"1 47128U 20088G   21274.60607913  .00000860  00000-0  76712-4 0  9999","INCLINATION":"53.0552","EPHEMERIS_TYPE":"0","TIME_SYSTEM":"UTC","DECAY_DATE":null,"BSTAR":"0.00007671200000"},{"ECCENTRICITY":"0.00009050","TLE_LINE2":"2 47129  53.0559   4.3307 0000905  83.1459 276.9633 15.06409906 47808","SITE":"AFETR","MEAN_MOTION_DOT":"0.00001627","CENTER_NAME":"EARTH","LAUNCH_DATE":"2020-11-25","RCS_SIZE":"LARGE","NORAD_CAT_ID":"47129","GP_ID":"185962484","CLASSIFICATION_TYPE":"U","MEAN_MOTION":"15.06409906","REF_FRAME":"TEME","EPHEMERIS_TYPE":"0","INCLINATION":"53.0559","TLE_LINE1":"1 47129U 20088H   21274.63463414  .00001627  00000-0  12802-3 0  9990","BSTAR":"0.00012802000000","TIME_SYSTEM":"UTC","DECAY_DATE":null,"OBJECT_NAME":"STARLINK-1838","ELEMENT_SET_NO":"999","EPOCH":"2021-10-01T15:13:52.389696","APOAPSIS":"547.810","RA_OF_ASC_NODE":"4.3307","PERIAPSIS":"546.556","PERIOD":"95.592","MEAN_MOTION_DDOT":"0.0000000000000","COUNTRY_CODE":"US","REV_AT_EPOCH":"4780","ARG_OF_PERICENTER":"83.1459","OBJECT_ID":"2020-088H","SEMIMAJOR_AXIS":"6925.318","FILE":"3139397","MEAN_ELEMENT_THEORY":"SGP4","MEAN_ANOMALY":"276.9633","OBJECT_TYPE":"PAYLOAD"},{"ECCENTRICITY":"0.00011960","TLE_LINE2":"2 47130  53.0548  23.5054 0001196  79.3997 280.7126 15.06396858 47549","SITE":"AFETR","MEAN_MOTION_DOT":"0.00000607","CENTER_NAME":"EARTH","LAUNCH_DATE":"2020-11-25","RCS_SIZE":"LARGE","GP_ID":"185960736","NORAD_CAT_ID":"47130","CLASSIFICATION_TYPE":"U","MEAN_MOTION":"15.06396858","REF_FRAME":"TEME","EPHEMERIS_TYPE":"0","TLE_LINE1":"1 47130U 20088J   21274.81710189  .00000607  00000-0  59648-4 0  9993","INCLINATION":"53.0548","BSTAR":"0.00005964800000","TIME_SYSTEM":"UTC","DECAY_DATE":null,"OBJECT_NAME":"STARLINK-1839","EPOCH":"2021-10-01T19:36:37.603296","ELEMENT_SET_NO":"999","APOAPSIS":"548.051","RA_OF_ASC_NODE":"23.5054","PERIAPSIS":"546.395","PERIOD":"95.592","COUNTRY_CODE":"US","MEAN_MOTION_DDOT":"0.0000000000000","REV_AT_EPOCH":"4754","ARG_OF_PERICENTER":"79.3997","SEMIMAJOR_AXIS":"6925.358","OBJECT_ID":"2020-088J","FILE":"3139397","MEAN_ELEMENT_THEORY":"SGP4","MEAN_ANOMALY":"280.7126","OBJECT_TYPE":"PAYLOAD"},{"MEAN_ANOMALY":"22.2529","OBJECT_TYPE":"PAYLOAD","MEAN_ELEMENT_THEORY":"SGP4","FILE":"3139397","ARG_OF_PERICENTER":"337.8086","OBJECT_ID":"2020-088K","SEMIMAJOR_AXIS":"6819.160","REV_AT_EPOCH":"4815","PERIOD":"93.402","MEAN_MOTION_DDOT":"0.0000000000000","COUNTRY_CODE":"US","PERIAPSIS":"434.901","RA_OF_ASC_NODE":"339.7563","APOAPSIS":"447.148","ELEMENT_SET_NO":"999","EPOCH":"2021-10-01T16:17:57.490368","OBJECT_NAME":"STARLINK-1840","TIME_SYSTEM":"UTC","DECAY_DATE":null,"BSTAR":"0.00130510000000","INCLINATION":"53.0504","TLE_LINE1":"1 47131U 20088K   21274.67913762  .00056045  00000-0  13051-2 0  9993","EPHEMERIS_TYPE":"0","MEAN_MOTION":"15.41723473","REF_FRAME":"TEME","GP_ID":"185960986","NORAD_CAT_ID":"47131","CLASSIFICATION_TYPE":"U","RCS_SIZE":"LARGE","MEAN_MOTION_DOT":"0.00056045","CENTER_NAME":"EARTH","LAUNCH_DATE":"2020-11-25","SITE":"AFETR","ECCENTRICITY":"0.00089800","TLE_LINE2":"2 47131  53.0504 339.7563 0008980 337.8086  22.2529 15.41723473 48158"},{"PERIOD":"95.592","MEAN_MOTION_DDOT":"0.0000000000000","COUNTRY_CODE":"US","REV_AT_EPOCH":"4779","ARG_OF_PERICENTER":"140.9500","SEMIMAJOR_AXIS":"6925.336","OBJECT_ID":"2020-088M","RA_OF_ASC_NODE":"4.5078","PERIAPSIS":"546.353","FILE":"3139397","MEAN_ELEMENT_THEORY":"SGP4","OBJECT_TYPE":"PAYLOAD","MEAN_ANOMALY":"219.1577","RCS_SIZE":"LARGE","NORAD_CAT_ID":"47133","GP_ID":"185962231","CLASSIFICATION_TYPE":"U","REF_FRAME":"TEME","MEAN_MOTION":"15.06404254","ECCENTRICITY":"0.00012240","TLE_LINE2":"2 47133  53.0579   4.5078 0001224 140.9500 219.1577 15.06404254 47791","SITE":"AFETR","MEAN_MOTION_DOT":"0.00000957","CENTER_NAME":"EARTH","LAUNCH_DATE":"2020-11-25","OBJECT_NAME":"STARLINK-1843","EPOCH":"2021-10-01T15:03:15.835968","ELEMENT_SET_NO":"999","APOAPSIS":"548.048","EPHEMERIS_TYPE":"0","TLE_LINE1":"1 47133U 20088M   21274.62726662  .00000957  00000-0  83093-4 0  9997","INCLINATION":"53.0579","BSTAR":"0.00008309300000","TIME_SYSTEM":"UTC","DECAY_DATE":null}];
